[{"OBJECT_NAME":"STARLINK-35213","OBJECT_ID":"2025-210S","EPOCH":"2026-03-10T22:36:15.476256","MEAN_MOTION":15.30207088,"ECCENTRICITY":9.51e-5,"INCLINATION":53.1596,"RA_OF_ASC_NODE":301.2021,"ARG_OF_PERICENTER":110.6025,"MEAN_ANOMALY":249.5078,"EPHEMERIS_TYPE":0,"CLASSIFICATION_TYPE":"U","NORAD_CAT_ID":65638,"ELEMENT_SET_NO":999,"REV_AT_EPOCH":2792,"BSTAR":0.00087244,"MEAN_MOTION_DOT":0.00025575,"MEAN_MOTION_DDOT":0},{"OBJECT_NAME":"STARLINK-35127","OBJECT_ID":"2025-210T","EPOCH":"2026-03-11T07:48:25.310016","MEAN_MOTION":15.30213633,"ECCENTRICITY":0.0001003,"INCLINATION":53.158,"RA_OF_ASC_NODE":299.3297,"ARG_OF_PERICENTER":90.9338,"MEAN_ANOMALY":269.1778,"EPHEMERIS_TYPE":0,"CLASSIFICATION_TYPE":"U","NORAD_CAT_ID":65639,"ELEMENT_SET_NO":999,"REV_AT_EPOCH":2798,"BSTAR":0.00052042,"MEAN_MOTION_DOT":0.00015092,"MEAN_MOTION_DDOT":0},{"OBJECT_NAME":"STARLINK-35091","OBJECT_ID":"2025-210U","EPOCH":"2026-03-10T22:19:31.266336","MEAN_MOTION":15.30181068,"ECCENTRICITY":0.0001079,"INCLINATION":53.1576,"RA_OF_ASC_NODE":301.1287,"ARG_OF_PERICENTER":64.0116,"MEAN_ANOMALY":296.0995,"EPHEMERIS_TYPE":0,"CLASSIFICATION_TYPE":"U","NORAD_CAT_ID":65640,"ELEMENT_SET_NO":999,"REV_AT_EPOCH":2792,"BSTAR":-0.00030535,"MEAN_MOTION_DOT":-9.386e-5,"MEAN_MOTION_DDOT":0},{"OBJECT_NAME":"STARLINK-35134","OBJECT_ID":"2025-210V","EPOCH":"2026-03-10T23:47:31.132320","MEAN_MOTION":15.30191828,"ECCENTRICITY":0.00011265,"INCLINATION":53.1575,"RA_OF_ASC_NODE":300.8008,"ARG_OF_PERICENTER":96.5354,"MEAN_ANOMALY":263.5775,"EPHEMERIS_TYPE":0,"CLASSIFICATION_TYPE":"U","NORAD_CAT_ID":65641,"ELEMENT_SET_NO":999,"REV_AT_EPOCH":2793,"BSTAR":0.00083013322,"MEAN_MOTION_DOT":0.00024301,"MEAN_MOTION_DDOT":0},{"OBJECT_NAME":"STARLINK-35109","OBJECT_ID":"2025-210W","EPOCH":"2026-03-11T01:12:27.347328","MEAN_MOTION":15.30204843,"ECCENTRICITY":9.383e-5,"INCLINATION":53.1582,"RA_OF_ASC_NODE":300.456,"ARG_OF_PERICENTER":88.3627,"MEAN_ANOMALY":271.7481,"EPHEMERIS_TYPE":0,"CLASSIFICATION_TYPE":"U","NORAD_CAT_ID":65642,"ELEMENT_SET_NO":999,"REV_AT_EPOCH":2794,"BSTAR":0.001357646,"MEAN_MOTION_DOT":0.00040073,"MEAN_MOTION_DDOT":0},{"OBJECT_NAME":"STARLINK-35062","OBJECT_ID":"2025-210X","EPOCH":"2026-03-10T22:02:49.640640","MEAN_MOTION":15.30204465,"ECCENTRICITY":5.86e-5,"INCLINATION":53.1582,"RA_OF_ASC_NODE":301.056,"ARG_OF_PERICENTER":63.9032,"MEAN_ANOMALY":296.2029,"EPHEMERIS_TYPE":0,"CLASSIFICATION_TYPE":"U","NORAD_CAT_ID":65643,"ELEMENT_SET_NO":999,"REV_AT_EPOCH":2792,"BSTAR":0.0011249,"MEAN_MOTION_DOT":0.00033109,"MEAN_MOTION_DDOT":0},{"OBJECT_NAME":"STARLINK-35141","OBJECT_ID":"2025-210Y","EPOCH":"2026-03-11T08:47:42.056736","MEAN_MOTION":15.30239019,"ECCENTRICITY":9.78e-5,"INCLINATION":53.1605,"RA_OF_ASC_NODE":299.58,"ARG_OF_PERICENTER":62.3235,"MEAN_ANOMALY":297.7865,"EPHEMERIS_TYPE":0,"CLASSIFICATION_TYPE":"U","NORAD_CAT_ID":65644,"ELEMENT_SET_NO":999,"REV_AT_EPOCH":2798,"BSTAR":0.00092761,"MEAN_MOTION_DOT":0.00027248,"MEAN_MOTION_DDOT":0},{"OBJECT_NAME":"STARLINK-35237","OBJECT_ID":"2025-210Z","EPOCH":"2026-03-10T21:53:54.280320","MEAN_MOTION":15.30177304,"ECCENTRICITY":0.0001155,"INCLINATION":53.1595,"RA_OF_ASC_NODE":301.7255,"ARG_OF_PERICENTER":72.4742,"MEAN_ANOMALY":287.6385,"EPHEMERIS_TYPE":0,"CLASSIFICATION_TYPE":"U","NORAD_CAT_ID":65645,"ELEMENT_SET_NO":999,"REV_AT_EPOCH":2791,"BSTAR":0.00089972,"MEAN_MOTION_DOT":0.00026364,"MEAN_MOTION_DDOT":0},{"OBJECT_NAME":"STARLINK-35183","OBJECT_ID":"2025-210AA","EPOCH":"2026-03-11T08:38:34.311840","MEAN_MOTION":15.30211408,"ECCENTRICITY":0.0001294,"INCLINATION":53.1603,"RA_OF_ASC_NODE":299.5411,"ARG_OF_PERICENTER":85.509,"MEAN_ANOMALY":274.6059,"EPHEMERIS_TYPE":0,"CLASSIFICATION_TYPE":"U","NORAD_CAT_ID":65646,"ELEMENT_SET_NO":999,"REV_AT_EPOCH":2798,"BSTAR":0.001019,"MEAN_MOTION_DOT":0.00029954,"MEAN_MOTION_DDOT":0},{"OBJECT_NAME":"STARLINK-35202","OBJECT_ID":"2025-210AB","EPOCH":"2026-03-11T00:40:42.406176","MEAN_MOTION":15.30193652,"ECCENTRICITY":0.00012092,"INCLINATION":53.1613,"RA_OF_ASC_NODE":301.0271,"ARG_OF_PERICENTER":52.2172,"MEAN_ANOMALY":307.8938,"EPHEMERIS_TYPE":0,"CLASSIFICATION_TYPE":"U","NORAD_CAT_ID":65647,"ELEMENT_SET_NO":999,"REV_AT_EPOCH":2793,"BSTAR":0.00087194525,"MEAN_MOTION_DOT":0.00025549,"MEAN_MOTION_DDOT":0},{"OBJECT_NAME":"STARLINK-34868","OBJECT_ID":"2025-210AC","EPOCH":"2026-03-11T00:28:31.465632","MEAN_MOTION":15.30188513,"ECCENTRICITY":0.00012704,"INCLINATION":53.1611,"RA_OF_ASC_NODE":300.9704,"ARG_OF_PERICENTER":98.002,"MEAN_ANOMALY":262.1125,"EPHEMERIS_TYPE":0,"CLASSIFICATION_TYPE":"U","NORAD_CAT_ID":65648,"ELEMENT_SET_NO":999,"REV_AT_EPOCH":2793,"BSTAR":-0.00034284567,"MEAN_MOTION_DOT":-0.00010495,"MEAN_MOTION_DDOT":0},{"OBJECT_NAME":"STARLINK-35079","OBJECT_ID":"2025-210AD","EPOCH":"2026-03-10T23:03:36.808416","MEAN_MOTION":15.30194698,"ECCENTRICITY":0.00012545,"INCLINATION":53.1611,"RA_OF_ASC_NODE":301.3126,"ARG_OF_PERICENTER":61.1839,"MEAN_ANOMALY":298.9288,"EPHEMERIS_TYPE":0,"CLASSIFICATION_TYPE":"U","NORAD_CAT_ID":65649,"ELEMENT_SET_NO":999,"REV_AT_EPOCH":2792,"BSTAR":0.0014312529,"MEAN_MOTION_DOT":0.00042265,"MEAN_MOTION_DDOT":0},{"OBJECT_NAME":"STARLINK-35328","OBJECT_ID":"2025-211A","EPOCH":"2026-03-11T09:16:32.556288","MEAN_MOTION":15.05642313,"ECCENTRICITY":0.0001991,"INCLINATION":97.6031,"RA_OF_ASC_NODE":115.6817,"ARG_OF_PERICENTER":88.5083,"MEAN_ANOMALY":271.6372,"EPHEMERIS_TYPE":0,"CLASSIFICATION_TYPE":"U","NORAD_CAT_ID":65652,"ELEMENT_SET_NO":999,"REV_AT_EPOCH":2729,"BSTAR":0.00040893,"MEAN_MOTION_DOT":5.843e-5,"MEAN_MOTION_DDOT":0},{"OBJECT_NAME":"STARLINK-34210","OBJECT_ID":"2025-211B","EPOCH":"2026-03-11T01:10:04.055520","MEAN_MOTION":15.05653916,"ECCENTRICITY":0.00013952,"INCLINATION":97.6027,"RA_OF_ASC_NODE":115.3625,"ARG_OF_PERICENTER":98.7289,"MEAN_ANOMALY":261.4096,"EPHEMERIS_TYPE":0,"CLASSIFICATION_TYPE":"U","NORAD_CAT_ID":65653,"ELEMENT_SET_NO":999,"REV_AT_EPOCH":2724,"BSTAR":0.00030691793,"MEAN_MOTION_DOT":4.371e-5,"MEAN_MOTION_DDOT":0},{"OBJECT_NAME":"STARLINK-35227","OBJECT_ID":"2025-211C","EPOCH":"2026-03-11T02:37:47.681760","MEAN_MOTION":15.05653832,"ECCENTRICITY":0.0001461,"INCLINATION":97.6026,"RA_OF_ASC_NODE":115.4353,"ARG_OF_PERICENTER":94.7063,"MEAN_ANOMALY":265.4331,"EPHEMERIS_TYPE":0,"CLASSIFICATION_TYPE":"U","NORAD_CAT_ID":65654,"ELEMENT_SET_NO":999,"REV_AT_EPOCH":2725,"BSTAR":0.00029535327,"MEAN_MOTION_DOT":4.204e-5,"MEAN_MOTION_DDOT":0},{"OBJECT_NAME":"STARLINK-35240","OBJECT_ID":"2025-211D","EPOCH":"2026-03-11T02:49:45.257088","MEAN_MOTION":15.05653869,"ECCENTRICITY":0.0001366,"INCLINATION":97.6033,"RA_OF_ASC_NODE":115.4235,"ARG_OF_PERICENTER":95.2001,"MEAN_ANOMALY":264.9382,"EPHEMERIS_TYPE":0,"CLASSIFICATION_TYPE":"U","NORAD_CAT_ID":65655,"ELEMENT_SET_NO":999,"REV_AT_EPOCH":2725,"BSTAR":0.00027240184,"MEAN_MOTION_DOT":3.872e-5,"MEAN_MOTION_DDOT":0},{"OBJECT_NAME":"STARLINK-35344","OBJECT_ID":"2025-211E","EPOCH":"2026-03-11T09:04:35.649696","MEAN_MOTION":15.05648169,"ECCENTRICITY":0.0001231,"INCLINATION":97.6026,"RA_OF_ASC_NODE":115.6934,"ARG_OF_PERICENTER":101.7807,"MEAN_ANOMALY":258.3558,"EPHEMERIS_TYPE":0,"CLASSIFICATION_TYPE":"U","NORAD_CAT_ID":65656,"ELEMENT_SET_NO":999,"REV_AT_EPOCH":2729,"BSTAR":0.0004108,"MEAN_MOTION_DOT":5.871e-5,"MEAN_MOTION_DDOT":0},{"OBJECT_NAME":"STARLINK-34540","OBJECT_ID":"2025-211F","EPOCH":"2026-03-11T02:33:49.022496","MEAN_MOTION":15.05647143,"ECCENTRICITY":0.00024564,"INCLINATION":97.6024,"RA_OF_ASC_NODE":115.439,"ARG_OF_PERICENTER":115.4014,"MEAN_ANOMALY":244.7467,"EPHEMERIS_TYPE":0,"CLASSIFICATION_TYPE":"U","NORAD_CAT_ID":65657,"ELEMENT_SET_NO":999,"REV_AT_EPOCH":2725,"BSTAR":0.000236084,"MEAN_MOTION_DOT":3.347e-5,"MEAN_MOTION_DDOT":0},{"OBJECT_NAME":"STARLINK-35282","OBJECT_ID":"2025-211G","EPOCH":"2026-03-11T02:25:50.852064","MEAN_MOTION":15.05634804,"ECCENTRICITY":0.00012279,"INCLINATION":97.6021,"RA_OF_ASC_NODE":115.4474,"ARG_OF_PERICENTER":99.8572,"MEAN_ANOMALY":260.2794,"EPHEMERIS_TYPE":0,"CLASSIFICATION_TYPE":"U","NORAD_CAT_ID":65658,"ELEMENT_SET_NO":999,"REV_AT_EPOCH":2725,"BSTAR":0.00021286148,"MEAN_MOTION_DOT":3.011e-5,"MEAN_MOTION_DDOT":0},{"OBJECT_NAME":"STARLINK-35120","OBJECT_ID":"2025-211H","EPOCH":"2026-03-11T00:54:07.154784","MEAN_MOTION":15.05657757,"ECCENTRICITY":0.00016192,"INCLINATION":97.6022,"RA_OF_ASC_NODE":115.3779,"ARG_OF_PERICENTER":132.5143,"MEAN_ANOMALY":227.6221,"EPHEMERIS_TYPE":0,"CLASSIFICATION_TYPE":"U","NORAD_CAT_ID":65659,"ELEMENT_SET_NO":999,"REV_AT_EPOCH":2724,"BSTAR":0.00035414518,"MEAN_MOTION_DOT":5.054e-5,"MEAN_MOTION_DDOT":0},{"OBJECT_NAME":"STARLINK-35246","OBJECT_ID":"2025-211J","EPOCH":"2026-03-11T08:44:38.788512","MEAN_MOTION":15.05655631,"ECCENTRICITY":0.0001432,"INCLINATION":97.6027,"RA_OF_ASC_NODE":115.7136,"ARG_OF_PERICENTER":91.9332,"MEAN_ANOMALY":268.2059,"EPHEMERIS_TYPE":0,"CLASSIFICATION_TYPE":"U","NORAD_CAT_ID":65660,"ELEMENT_SET_NO":999,"REV_AT_EPOCH":2729,"BSTAR":0.00034024,"MEAN_MOTION_DOT":4.853e-5,"MEAN_MOTION_DDOT":0},{"OBJECT_NAME":"STARLINK-35220","OBJECT_ID":"2025-211K","EPOCH":"2026-03-11T08:40:39.461376","MEAN_MOTION":15.0565669,"ECCENTRICITY":9.04e-5,"INCLINATION":97.6021,"RA_OF_ASC_NODE":115.7176,"ARG_OF_PERICENTER":107.9946,"MEAN_ANOMALY":252.1379,"EPHEMERIS_TYPE":0,"CLASSIFICATION_TYPE":"U","NORAD_CAT_ID":65661,"ELEMENT_SET_NO":999,"REV_AT_EPOCH":2729,"BSTAR":0.0003499,"MEAN_MOTION_DOT":4.992e-5,"MEAN_MOTION_DDOT":0},{"OBJECT_NAME":"STARLINK-35176","OBJECT_ID":"2025-211L","EPOCH":"2026-03-11T02:13:52.371264","MEAN_MOTION":15.05658166,"ECCENTRICITY":9.509e-5,"INCLINATION":97.6021,"RA_OF_ASC_NODE":115.4584,"ARG_OF_PERICENTER":122.1372,"MEAN_ANOMALY":237.9948,"EPHEMERIS_TYPE":0,"CLASSIFICATION_TYPE":"U","NORAD_CAT_ID":65662,"ELEMENT_SET_NO":999,"REV_AT_EPOCH":2725,"BSTAR":0.00033647714,"MEAN_MOTION_DOT":4.799e-5,"MEAN_MOTION_DDOT":0}]
